{"fetched_at":"2026-07-22T07:09:23.749Z","source":"https://celestrak.org/NORAD/elements/gp.php?GROUP=planet&FORMAT=JSON","constellation":"superdove","records":[{"OBJECT_NAME":"FLOCK 4BE-3","OBJECT_ID":"2024-149CX","EPOCH":"2026-07-21T12:55:06.862368","CLASSIFICATION_TYPE":"U","MEAN_MOTION":15.42537574,"ECCENTRICITY":0.00054422,"INCLINATION":97.3685,"RA_OF_ASC_NODE":286.8024,"ARG_OF_PERICENTER":150.7449,"MEAN_ANOMALY":209.4104,"EPHEMERIS_TYPE":0,"NORAD_CAT_ID":60561,"ELEMENT_SET_NO":999,"REV_AT_EPOCH":10763,"BSTAR":0.00038764099,"MEAN_MOTION_DOT":0.00016758,"MEAN_MOTION_DDOT":0},{"OBJECT_NAME":"FLOCK 4BE-19","OBJECT_ID":"2024-149CZ","EPOCH":"2026-07-21T04:34:29.239680","CLASSIFICATION_TYPE":"U","MEAN_MOTION":15.45849185,"ECCENTRICITY":0.00061973,"INCLINATION":97.3729,"RA_OF_ASC_NODE":288.1684,"ARG_OF_PERICENTER":157.1905,"MEAN_ANOMALY":202.9621,"EPHEMERIS_TYPE":0,"NORAD_CAT_ID":60563,"ELEMENT_SET_NO":999,"REV_AT_EPOCH":10767,"BSTAR":0.00042564206,"MEAN_MOTION_DOT":0.00020606,"MEAN_MOTION_DDOT":0},{"OBJECT_NAME":"FLOCK 4G-8","OBJECT_ID":"2025-009E","EPOCH":"2026-07-21T03:47:54.314592","CLASSIFICATION_TYPE":"U","MEAN_MOTION":15.3031516,"ECCENTRICITY":0.00046756,"INCLINATION":97.3993,"RA_OF_ASC_NODE":284.0326,"ARG_OF_PERICENTER":172.5437,"MEAN_ANOMALY":187.5874,"EPHEMERIS_TYPE":0,"NORAD_CAT_ID":62613,"ELEMENT_SET_NO":999,"REV_AT_EPOCH":8411,"BSTAR":0.00026996541,"MEAN_MOTION_DOT":0.00007843,"MEAN_MOTION_DDOT":0},{"OBJECT_NAME":"FLOCK 4G-13","OBJECT_ID":"2025-009N","EPOCH":"2026-07-21T05:37:28.256448","CLASSIFICATION_TYPE":"U","MEAN_MOTION":15.4958987,"ECCENTRICITY":0.00067547,"INCLINATION":97.3937,"RA_OF_ASC_NODE":286.236,"ARG_OF_PERICENTER":182.7214,"MEAN_ANOMALY":177.4002,"EPHEMERIS_TYPE":0,"NORAD_CAT_ID":62621,"ELEMENT_SET_NO":999,"REV_AT_EPOCH":8426,"BSTAR":0.0012805205,"MEAN_MOTION_DOT":0.00071234,"MEAN_MOTION_DDOT":0},{"OBJECT_NAME":"FLOCK 4G-9","OBJECT_ID":"2025-009P","EPOCH":"2026-07-21T04:30:22.788000","CLASSIFICATION_TYPE":"U","MEAN_MOTION":15.28572461,"ECCENTRICITY":0.00046711,"INCLINATION":97.3949,"RA_OF_ASC_NODE":282.8972,"ARG_OF_PERICENTER":183.1939,"MEAN_ANOMALY":176.9271,"EPHEMERIS_TYPE":0,"NORAD_CAT_ID":62622,"ELEMENT_SET_NO":999,"REV_AT_EPOCH":8405,"BSTAR":0.00023999704,"MEAN_MOTION_DOT":0.00006598,"MEAN_MOTION_DDOT":0},{"OBJECT_NAME":"FLOCK 4G-7","OBJECT_ID":"2025-009R","EPOCH":"2026-07-21T05:01:15.705120","CLASSIFICATION_TYPE":"U","MEAN_MOTION":15.29946499,"ECCENTRICITY":0.00032318,"INCLINATION":97.3929,"RA_OF_ASC_NODE":283.3461,"ARG_OF_PERICENTER":165.1596,"MEAN_ANOMALY":194.974,"EPHEMERIS_TYPE":0,"NORAD_CAT_ID":62624,"ELEMENT_SET_NO":999,"REV_AT_EPOCH":8410,"BSTAR":0.00025547079,"MEAN_MOTION_DOT":0.00007332,"MEAN_MOTION_DDOT":0},{"OBJECT_NAME":"FLOCK 4G-12","OBJECT_ID":"2025-009S","EPOCH":"2026-07-21T04:55:00.005952","CLASSIFICATION_TYPE":"U","MEAN_MOTION":15.29849961,"ECCENTRICITY":0.0004779,"INCLINATION":97.401,"RA_OF_ASC_NODE":283.8969,"ARG_OF_PERICENTER":169.2531,"MEAN_ANOMALY":190.8813,"EPHEMERIS_TYPE":0,"NORAD_CAT_ID":62625,"ELEMENT_SET_NO":999,"REV_AT_EPOCH":8410,"BSTAR":0.00027488573,"MEAN_MOTION_DOT":0.00007873,"MEAN_MOTION_DDOT":0},{"OBJECT_NAME":"FLOCK 4G-11","OBJECT_ID":"2025-009W","EPOCH":"2026-07-21T04:32:35.035296","CLASSIFICATION_TYPE":"U","MEAN_MOTION":15.29960761,"ECCENTRICITY":0.00032571,"INCLINATION":97.391,"RA_OF_ASC_NODE":283.4329,"ARG_OF_PERICENTER":166.8235,"MEAN_ANOMALY":193.3092,"EPHEMERIS_TYPE":0,"NORAD_CAT_ID":62629,"ELEMENT_SET_NO":999,"REV_AT_EPOCH":8411,"BSTAR":0.00030378199,"MEAN_MOTION_DOT":0.00008738,"MEAN_MOTION_DDOT":0},{"OBJECT_NAME":"FLOCK 4G-26","OBJECT_ID":"2025-009AA","EPOCH":"2026-07-21T04:51:02.512224","CLASSIFICATION_TYPE":"U","MEAN_MOTION":15.30158464,"ECCENTRICITY":0.0004205,"INCLINATION":97.4007,"RA_OF_ASC_NODE":284.0575,"ARG_OF_PERICENTER":160.1216,"MEAN_ANOMALY":200.019,"EPHEMERIS_TYPE":0,"NORAD_CAT_ID":62633,"ELEMENT_SET_NO":999,"REV_AT_EPOCH":8411,"BSTAR":0.00031265219,"MEAN_MOTION_DOT":0.00009051,"MEAN_MOTION_DDOT":0},{"OBJECT_NAME":"FLOCK 4G-28","OBJECT_ID":"2025-009AB","EPOCH":"2026-07-21T11:21:36.891360","CLASSIFICATION_TYPE":"U","MEAN_MOTION":15.35348637,"ECCENTRICITY":0.000263,"INCLINATION":97.4016,"RA_OF_ASC_NODE":287.163,"ARG_OF_PERICENTER":149.1089,"MEAN_ANOMALY":211.031,"EPHEMERIS_TYPE":0,"NORAD_CAT_ID":62634,"ELEMENT_SET_NO":999,"REV_AT_EPOCH":8434,"BSTAR":0.00020808979,"MEAN_MOTION_DOT":0.00007063,"MEAN_MOTION_DDOT":0},{"OBJECT_NAME":"FLOCK 4G-24","OBJECT_ID":"2025-009AE","EPOCH":"2026-07-21T05:05:37.748544","CLASSIFICATION_TYPE":"U","MEAN_MOTION":15.30441,"ECCENTRICITY":0.00041556,"INCLINATION":97.4013,"RA_OF_ASC_NODE":284.3759,"ARG_OF_PERICENTER":150.2027,"MEAN_ANOMALY":209.9451,"EPHEMERIS_TYPE":0,"NORAD_CAT_ID":62637,"ELEMENT_SET_NO":999,"REV_AT_EPOCH":8413,"BSTAR":0.00026950237,"MEAN_MOTION_DOT":0.00007859,"MEAN_MOTION_DDOT":0},{"OBJECT_NAME":"FLOCK 4G-3","OBJECT_ID":"2025-009AG","EPOCH":"2026-07-21T12:49:30.931392","CLASSIFICATION_TYPE":"U","MEAN_MOTION":15.29952257,"ECCENTRICITY":0.00037894,"INCLINATION":97.4015,"RA_OF_ASC_NODE":284.4002,"ARG_OF_PERICENTER":153.4312,"MEAN_ANOMALY":206.7123,"EPHEMERIS_TYPE":0,"NORAD_CAT_ID":62639,"ELEMENT_SET_NO":999,"REV_AT_EPOCH":8415,"BSTAR":0.00030011383,"MEAN_MOTION_DOT":0.00008629,"MEAN_MOTION_DDOT":0},{"OBJECT_NAME":"FLOCK 4G-27","OBJECT_ID":"2025-009AJ","EPOCH":"2026-07-21T11:43:55.369056","CLASSIFICATION_TYPE":"U","MEAN_MOTION":15.29882473,"ECCENTRICITY":0.00031063,"INCLINATION":97.3921,"RA_OF_ASC_NODE":283.6948,"ARG_OF_PERICENTER":154.6976,"MEAN_ANOMALY":205.4417,"EPHEMERIS_TYPE":0,"NORAD_CAT_ID":62641,"ELEMENT_SET_NO":999,"REV_AT_EPOCH":8414,"BSTAR":0.00028990529,"MEAN_MOTION_DOT":0.00008315,"MEAN_MOTION_DDOT":0},{"OBJECT_NAME":"FLOCK 4G-29","OBJECT_ID":"2025-009AK","EPOCH":"2026-07-21T05:05:48.298848","CLASSIFICATION_TYPE":"U","MEAN_MOTION":15.29918453,"ECCENTRICITY":0.00039057,"INCLINATION":97.4008,"RA_OF_ASC_NODE":284.039,"ARG_OF_PERICENTER":150.9022,"MEAN_ANOMALY":209.2437,"EPHEMERIS_TYPE":0,"NORAD_CAT_ID":62642,"ELEMENT_SET_NO":999,"REV_AT_EPOCH":8410,"BSTAR":0.00019373691,"MEAN_MOTION_DOT":0.00005536,"MEAN_MOTION_DDOT":0},{"OBJECT_NAME":"FLOCK 4G-22","OBJECT_ID":"2025-009AN","EPOCH":"2026-07-21T11:49:36.373440","CLASSIFICATION_TYPE":"U","MEAN_MOTION":15.2985258,"ECCENTRICITY":0.00034544,"INCLINATION":97.3995,"RA_OF_ASC_NODE":284.3504,"ARG_OF_PERICENTER":147.2003,"MEAN_ANOMALY":212.9453,"EPHEMERIS_TYPE":0,"NORAD_CAT_ID":62645,"ELEMENT_SET_NO":999,"REV_AT_EPOCH":8416,"BSTAR":0.00034466879,"MEAN_MOTION_DOT":0.00009892,"MEAN_MOTION_DDOT":0},{"OBJECT_NAME":"FLOCK 4G-25","OBJECT_ID":"2025-009AP","EPOCH":"2026-07-21T11:10:23.658240","CLASSIFICATION_TYPE":"U","MEAN_MOTION":15.30084521,"ECCENTRICITY":0.00029447,"INCLINATION":97.4002,"RA_OF_ASC_NODE":284.4049,"ARG_OF_PERICENTER":149.0836,"MEAN_ANOMALY":211.0578,"EPHEMERIS_TYPE":0,"NORAD_CAT_ID":62646,"ELEMENT_SET_NO":999,"REV_AT_EPOCH":8416,"BSTAR":0.00027102343,"MEAN_MOTION_DOT":0.00007816,"MEAN_MOTION_DDOT":0}]}
