{"epoch":1784710044,"count":18256,"objects":[{"id":"60561","name":"FLOCK 4BE 3","type":"PAYLOAD","l1":"1 60561U 24149CX  26202.53827387  .00016758  00000-0  38764-3 0  9991","l2":"2 60561  97.3685 286.8024 0005442 150.7449 209.4104 15.42537574107633"},{"id":"60563","name":"FLOCK 4BE 19","type":"PAYLOAD","l1":"1 60563U 24149CZ  26202.19061620  .00020606  00000-0  42564-3 0  9995","l2":"2 60563  97.3729 288.1684 0006197 157.1905 202.9621 15.45849185107670"},{"id":"62613","name":"FLOCK 4G 8","type":"PAYLOAD","l1":"1 62613U 25009E   26202.15826753  .00007843  00000-0  26997-3 0  9991","l2":"2 62613  97.3993 284.0326 0004676 172.5437 187.5874 15.30315160 84116"},{"id":"62621","name":"FLOCK 4G 13","type":"PAYLOAD","l1":"1 62621U 25009N   26202.23435482  .00071234  00000-0  12805-2 0  9991","l2":"2 62621  97.3937 286.2360 0006755 182.7214 177.4002 15.49589870 84269"},{"id":"62622","name":"FLOCK 4G 9","type":"PAYLOAD","l1":"1 62622U 25009P   26202.18776375  .00006598  00000-0  24000-3 0  9997","l2":"2 62622  97.3949 282.8972 0004671 183.1939 176.9271 15.28572461 84052"},{"id":"62624","name":"FLOCK 4G 7","type":"PAYLOAD","l1":"1 62624U 25009R   26202.20920955  .00007332  00000-0  25547-3 0  9991","l2":"2 62624  97.3929 283.3461 0003232 165.1596 194.9740 15.29946499 84106"},{"id":"62625","name":"FLOCK 4G 12","type":"PAYLOAD","l1":"1 62625U 25009S   26202.20486118  .00007873  00000-0  27489-3 0  9997","l2":"2 62625  97.4010 283.8969 0004779 169.2531 190.8813 15.29849961 84100"},{"id":"62629","name":"FLOCK 4G 11","type":"PAYLOAD","l1":"1 62629U 25009W   26202.18929439  .00008738  00000-0  30378-3 0  9998","l2":"2 62629  97.3910 283.4329 0003257 166.8235 193.3092 15.29960761 84112"},{"id":"62633","name":"FLOCK 4G 26","type":"PAYLOAD","l1":"1 62633U 25009AA  26202.20211241  .00009051  00000-0  31265-3 0  9996","l2":"2 62633  97.4007 284.0575 0004205 160.1216 200.0190 15.30158464 84111"},{"id":"62634","name":"FLOCK 4G 28","type":"PAYLOAD","l1":"1 62634U 25009AB  26202.47334365  .00007063  00000-0  20809-3 0  9992","l2":"2 62634  97.4016 287.1630 0002630 149.1089 211.0310 15.35348637 84342"},{"id":"62637","name":"FLOCK 4G 24","type":"PAYLOAD","l1":"1 62637U 25009AE  26202.21224246  .00007859  00000-0  26950-3 0  9999","l2":"2 62637  97.4013 284.3759 0004156 150.2027 209.9451 15.30441000 84135"},{"id":"62639","name":"FLOCK 4G 3","type":"PAYLOAD","l1":"1 62639U 25009AG  26202.53438578  .00008629  00000-0  30011-3 0  9990","l2":"2 62639  97.4015 284.4002 0003789 153.4312 206.7123 15.29952257 84156"},{"id":"62641","name":"FLOCK 4G 27","type":"PAYLOAD","l1":"1 62641U 25009AJ  26202.48883529  .00008315  00000-0  28991-3 0  9993","l2":"2 62641  97.3921 283.6948 0003106 154.6976 205.4417 15.29882473 84149"},{"id":"62642","name":"FLOCK 4G 29","type":"PAYLOAD","l1":"1 62642U 25009AK  26202.21236457  .00005536  00000-0  19374-3 0  9994","l2":"2 62642  97.4008 284.0390 0003906 150.9022 209.2437 15.29918453 84100"},{"id":"62645","name":"FLOCK 4G 22","type":"PAYLOAD","l1":"1 62645U 25009AN  26202.49278210  .00009892  00000-0  34467-3 0  9999","l2":"2 62645  97.3995 284.3504 0003454 147.2003 212.9453 15.29852580 84166"},{"id":"62646","name":"FLOCK 4G 25","type":"PAYLOAD","l1":"1 62646U 25009AP  26202.46555160  .00007816  00000-0  27102-3 0  9991","l2":"2 62646  97.4002 284.4049 0002945 149.0836 211.0578 15.30084521 84162"}]}